AMGU-1 (AMURSAT)        
1 44394U 19038J   22008.94857327  .00002823  00000+0  15571-3 0  9998
2 44394  97.6144 338.0121 0019795 329.0582  30.9468 15.14648905138875
DOT-1                   
1 44399U 19038P   22008.85214600  .00001957  00000+0  11283-3 0  9997
2 44399  97.6193 337.1309 0023242 332.9673  27.0345 15.13383014138796
SOKRAT                  
1 44404U 19038U   22008.85815851  .00003365  00000+0  18558-3 0  9996
2 44404  97.6156 337.6374 0020309 330.8119  29.1976 15.14506254138845
LUCKY-7                 
1 44406U 19038W   22008.89908805  .00002138  00000+0  12183-3 0  9999
2 44406  97.6185 337.4647 0022850 324.9161  35.0564 15.13714103138813
D-STAR ONE (EXOCONNECT) 
1 44410U 19038AA  22009.15012976  .00004838  00000+0  25579-3 0  9991
2 44410  97.6118 338.4277 0019600 326.6236  33.3759 15.15796332138931
NARSSCUBE-2             
1 44415U 19022E   22008.70906415  .00003425  00000+0  12022-3 0  9999
2 44415  51.6405 169.3901 0011069 198.5738 161.4841 15.32175789135606
KRAKSAT                 
1 44427U 98067QM  22009.11474111  .00488517  12721-3  59316-3 0  9990
2 44427  51.6297 318.4211 0005484 140.8911 332.5212 16.07503709143945
DUCHIFAT-3              
1 44854U 19089C   22009.19497862  .00001148  00000+0  96956-4 0  9993
2 44854  36.9651 323.5804 0007895 356.5867   3.4773 14.99954655114008
OPS-SAT                 
1 44878U 19092F   22008.73952143  .00002845  00000+0  14512-3 0  9992
2 44878  97.4747 194.4148 0013460 170.3842 189.7651 15.17485971113955
FLORIPASAT-1            
1 44885U 19093G   22009.02295607  .00000615  00000+0  83041-4 0  9996
2 44885  97.9116  91.3665 0014445 357.7644   2.3470 14.82552821111229
HUSKYSAT-1 (HO-107)     
1 45119U 19071J   22008.58022700  .00006473  00000+0  17914-3 0  9998
2 45119  51.6405 120.7522 0010253 312.9549  47.0574 15.38235485108714
G-SAT                   
1 45597U 98067RK  22008.42945731  .00036660  00000+0  30932-3 0  9997
2 45597  51.6372  14.4088 0004689  33.0421 327.0868 15.69409736 96651
QUETZAL-1               
1 45598U 98067RL  22008.68359386  .00091644  00000+0  49883-3 0  9999
2 45598  51.6363   5.5477 0004713  60.1566 299.9903 15.79183802 96723
BY70-2                  
1 45857U 20042B   22009.20202133  .00002169  00000+0  30870-3 0  9991
2 45857  97.9698  87.7517 0009493 266.5749  93.4331 14.77845244 81927
SALSAT                  
1 46495U 20068K   22008.89857507  .00001034  00000+0  79576-4 0  9990
2 46495  97.7128 310.4100 0018407  97.4651 262.8666 15.03774194 70201
NETSAT-4                
1 46504U 20068U   22008.78552914  .00000989  00000+0  79070-4 0  9990
2 46504  97.7083 309.1635 0011349 140.3258 219.8803 15.02473720 70068
NETSAT-3                
1 46505U 20068V   22008.79683895  .00000024  00000+0  64279-5 0  9991
2 46505  97.7102 309.1217 0010778 143.6187 216.5770 15.02443107 70073
NETSAT-1                
1 46506U 20068W   22008.80828724  .00000424  00000+0  36606-4 0  9992
2 46506  97.7109 309.0850 0010368 148.1451 212.0402 15.02417475 70074
NETSAT-2                
1 46507U 20068X   22008.81518446  .00000660  00000+0  54383-4 0  9995
2 46507  97.7127 309.0882 0009855 153.5313 206.6416 15.02405717 70021
BY70-3                  
1 46839U 20079N   22009.28612618  .00004902  00000+0  14198-3 0  9995
2 46839  97.2201  84.0884 0006407 173.7475 219.8555 15.36015680 65771
SPOC                    
1 46921U 98067RR  22008.74303472  .00020184  00000+0  23410-3 0  9991
2 46921  51.6400  27.8212 0002003  85.0393 275.0829 15.61774205 66851
BOBCAT-1                
1 46922U 98067RS  22008.74789252  .00041722  00000+0  35988-3 0  9990
2 46922  51.6413  21.1373 0002529  69.5754 290.5514 15.68819289 66900
NEUTRON-1               
1 46923U 98067RT  22009.22334154  .00029274  00000+0  33735-3 0  9998
2 46923  51.6406  25.7818 0001730  92.4437 267.6755 15.61706446 66942
DESCENT                 
1 46927U 98067RX  22008.64721888  .00020440  00000+0  23652-3 0  9994
2 46927  51.6407  28.6810 0001342 110.2888 249.8250 15.61825883 66779
UVSQ-SAT                
1 47438U 21006AB  22008.67256890  .00001661  00000+0  95186-4 0  9996
2 47438  97.4621  70.9955 0014001 107.2828 252.9937 15.13884908 53097
SOMP2B                  
1 47445U 21006AJ  22009.10751588  .00001688  00000+0  97272-4 0  9994
2 47445  97.4592  71.2049 0013647 109.3922 250.8786 15.13681358 53153
WARP-01                 
1 47924U 98067SA  22009.05780179  .00041277  00000+0  46454-3 0  9992
2 47924  51.6389  32.8877 0003044 120.8695 239.2598 15.62144207 46805
RSP-01                  
1 47925U 98067SB  22008.67834475  .00021958  00000+0  27686-3 0  9999
2 47925  51.6415  36.3817 0002732  57.2786 302.8470 15.59522584 46705
TAUSAT-1                
1 47926U 98067SC  22008.78892495  .00032546  00000+0  36260-3 0  9991
2 47926  51.6404  33.3508 0003675  57.1101 303.0247 15.62518653 46740
TSURU                   
1 47927U 98067SD  22009.12966006  .00028721  00000+0  37354-3 0  9996
2 47927  51.6405  34.8941 0002738  60.3175 299.8089 15.58534095 46766
STARS-EC                
1 47928U 98067SE  22009.10586818  .00050068  00000+0  54252-3 0  9999
2 47928  51.6401  32.4690 0003179 123.6976 236.4322 15.63032409 46776
MAYA-2                  
1 47929U 98067SF  22008.80468186  .00019963  00000+0  26214-3 0  9999
2 47929  51.6408  36.4708 0002788  56.6925 303.4334 15.58508919 46677
HIROGARI (OPUSAT-II)    
1 47930U 98067SG  22009.07641372  .00047458  00000+0  49784-3 0  9998
2 47930  51.6395  31.5342 0003454  49.0498 311.0795 15.63882397 46808
GUARANISAT-1            
1 47931U 98067SH  22008.60788123  .00018825  00000+0  24713-3 0  9994
2 47931  51.6420  37.4136 0002827  55.6515 304.4745 15.58559611 46681
DIY-1 (ARDUIQUBE)       
1 47963U 21022AH  22009.00467906  .00005684  00000+0  36254-3 0  9996
2 47963  97.5452 272.6963 0018210 326.8592  33.1495 15.08962337 42875
